ONEWEB-0501             
1 54119U 22138G   24028.78939454  .00000005  00000+0 -20564-4 0  9997
2 54119  87.9194 118.2363 0002426 106.6352 253.5047 13.19724949 62004
ONEWEB-0502             
1 54120U 22138H   24028.77516980 -.00000023  00000+0 -90680-4 0  9990
2 54120  87.9193 118.2300 0002181 109.2239 250.9130 13.19725338 62026
ONEWEB-0503             
1 54121U 22138J   24029.14322749  .00001285  00000+0  31774-2 0  9997
2 54121  87.9189 118.1646 0001636 132.7707 227.3564 13.19719496 62936
ONEWEB-0504             
1 54122U 22138K   24028.75148136  .00000023  00000+0  25232-4 0  9993
2 54122  87.9195 118.2454 0002090 113.8161 246.3191 13.19724368 62022
ONEWEB-0505             
1 54123U 22138L   24028.74832152  .00000029  00000+0  39812-4 0  9996
2 54123  87.9193 118.2425 0002590 111.0960 249.0450 13.19724714 62002
ONEWEB-0506             
1 54124U 22138M   24029.17793590  .00000116  00000+0  25808-3 0  9993
2 54124  87.9192 118.1538 0002129 105.7161 254.4206 13.19727120 62921
ONEWEB-0507             
1 54125U 22138N   24028.74357377  .00000105  00000+0  22996-3 0  9998
2 54125  87.9201 118.2498 0002185 101.4937 258.6441 13.19725662 62044
ONEWEB-0508             
1 54126U 22138P   24028.74042028  .00000055  00000+0  10595-3 0  9999
2 54126  87.9199 118.2479 0002404 105.4741 254.6657 13.19724335 62020
